CCSDS_OMM_VERS = 2.0
CREATION_DATE  = 
ORIGINATOR     = 

OBJECT_NAME    = STARLINK-35961
OBJECT_ID      = 2025-265Q
CENTER_NAME    = EARTH
REF_FRAME      = TEME
TIME_SYSTEM    = UTC
MEAN_ELEMENT_THEORY = SGP/SGP4

EPOCH          = 2025-12-03T22:00:03.000096
MEAN_MOTION    = 15.75394675
ECCENTRICITY   = .00015428
INCLINATION    = 42.9997
RA_OF_ASC_NODE = 106.2413
ARG_OF_PERICENTER = 270.3176
MEAN_ANOMALY   = 342.4214

EPHEMERIS_TYPE = 0
CLASSIFICATION_TYPE = U
NORAD_CAT_ID   = 66530
ELEMENT_SET_NO = 999
REV_AT_EPOCH   = 357
BSTAR          = -.63070177E-2
MEAN_MOTION_DOT = -.886923E-2
MEAN_MOTION_DDOT = 0

CCSDS_OMM_VERS = 2.0
CREATION_DATE  = 
ORIGINATOR     = 

OBJECT_NAME    = STARLINK-35960
OBJECT_ID      = 2025-265R
CENTER_NAME    = EARTH
REF_FRAME      = TEME
TIME_SYSTEM    = UTC
MEAN_ELEMENT_THEORY = SGP/SGP4

EPOCH          = 2025-12-03T22:00:03.000096
MEAN_MOTION    = 15.75306745
ECCENTRICITY   = .00019883
INCLINATION    = 42.9997
RA_OF_ASC_NODE = 106.2362
ARG_OF_PERICENTER = 260.0866
MEAN_ANOMALY   = 354.5586

EPHEMERIS_TYPE = 0
CLASSIFICATION_TYPE = U
NORAD_CAT_ID   = 66531
ELEMENT_SET_NO = 999
REV_AT_EPOCH   = 357
BSTAR          = -.51505878E-2
MEAN_MOTION_DOT = -.734959E-2
MEAN_MOTION_DDOT = 0

CCSDS_OMM_VERS = 2.0
CREATION_DATE  = 
ORIGINATOR     = 

OBJECT_NAME    = STARLINK-35914
OBJECT_ID      = 2025-265S
CENTER_NAME    = EARTH
REF_FRAME      = TEME
TIME_SYSTEM    = UTC
MEAN_ELEMENT_THEORY = SGP/SGP4

EPOCH          = 2025-12-03T22:00:03.000096
MEAN_MOTION    = 15.75398667
ECCENTRICITY   = .00018673
INCLINATION    = 42.9995
RA_OF_ASC_NODE = 106.2316
ARG_OF_PERICENTER = 261.4460
MEAN_ANOMALY   = 355.1253

EPHEMERIS_TYPE = 0
CLASSIFICATION_TYPE = U
NORAD_CAT_ID   = 66532
ELEMENT_SET_NO = 999
REV_AT_EPOCH   = 357
BSTAR          = -.63215576E-2
MEAN_MOTION_DOT = -.889022E-2
MEAN_MOTION_DDOT = 0

CCSDS_OMM_VERS = 2.0
CREATION_DATE  = 
ORIGINATOR     = 

OBJECT_NAME    = STARLINK-35707
OBJECT_ID      = 2025-265T
CENTER_NAME    = EARTH
REF_FRAME      = TEME
TIME_SYSTEM    = UTC
MEAN_ELEMENT_THEORY = SGP/SGP4

EPOCH          = 2025-12-03T22:00:03.000096
MEAN_MOTION    = 15.75370195
ECCENTRICITY   = .00017952
INCLINATION    = 42.9996
RA_OF_ASC_NODE = 106.2269
ARG_OF_PERICENTER = 277.3649
MEAN_ANOMALY   = 341.1386

EPHEMERIS_TYPE = 0
CLASSIFICATION_TYPE = U
NORAD_CAT_ID   = 66533
ELEMENT_SET_NO = 999
REV_AT_EPOCH   = 357
BSTAR          = -.60699941E-2
MEAN_MOTION_DOT = -.855975E-2
MEAN_MOTION_DDOT = 0

CCSDS_OMM_VERS = 2.0
CREATION_DATE  = 
ORIGINATOR     = 

OBJECT_NAME    = STARLINK-35976
OBJECT_ID      = 2025-265U
CENTER_NAME    = EARTH
REF_FRAME      = TEME
TIME_SYSTEM    = UTC
MEAN_ELEMENT_THEORY = SGP/SGP4

EPOCH          = 2025-12-03T22:00:03.000096
MEAN_MOTION    = 15.75409706
ECCENTRICITY   = .00020481
INCLINATION    = 42.9999
RA_OF_ASC_NODE = 106.2225
ARG_OF_PERICENTER = 271.4597
MEAN_ANOMALY   = 348.9457

EPHEMERIS_TYPE = 0
CLASSIFICATION_TYPE = U
NORAD_CAT_ID   = 66534
ELEMENT_SET_NO = 999
REV_AT_EPOCH   = 357
BSTAR          = -.63807198E-2
MEAN_MOTION_DOT = -.896983E-2
MEAN_MOTION_DDOT = 0

CCSDS_OMM_VERS = 2.0
CREATION_DATE  = 
ORIGINATOR     = 

OBJECT_NAME    = STARLINK-35514
OBJECT_ID      = 2025-265V
CENTER_NAME    = EARTH
REF_FRAME      = TEME
TIME_SYSTEM    = UTC
MEAN_ELEMENT_THEORY = SGP/SGP4

EPOCH          = 2025-12-03T22:00:03.000096
MEAN_MOTION    = 15.75412628
ECCENTRICITY   = .00019344
INCLINATION    = 42.9999
RA_OF_ASC_NODE = 106.2177
ARG_OF_PERICENTER = 276.4280
MEAN_ANOMALY   = 345.8911

EPHEMERIS_TYPE = 0
CLASSIFICATION_TYPE = U
NORAD_CAT_ID   = 66535
ELEMENT_SET_NO = 999
REV_AT_EPOCH   = 357
BSTAR          = -.64057162E-2
MEAN_MOTION_DOT = -.900211E-2
MEAN_MOTION_DDOT = 0

CCSDS_OMM_VERS = 2.0
CREATION_DATE  = 
ORIGINATOR     = 

OBJECT_NAME    = STARLINK-35640
OBJECT_ID      = 2025-265W
CENTER_NAME    = EARTH
REF_FRAME      = TEME
TIME_SYSTEM    = UTC
MEAN_ELEMENT_THEORY = SGP/SGP4

EPOCH          = 2025-12-03T22:00:03.000096
MEAN_MOTION    = 15.75373404
ECCENTRICITY   = .00015278
INCLINATION    = 42.9998
RA_OF_ASC_NODE = 106.2129
ARG_OF_PERICENTER = 276.5691
MEAN_ANOMALY   = 347.6795

EPHEMERIS_TYPE = 0
CLASSIFICATION_TYPE = U
NORAD_CAT_ID   = 66536
ELEMENT_SET_NO = 999
REV_AT_EPOCH   = 355
BSTAR          = -.60683927E-2
MEAN_MOTION_DOT = -.855794E-2
MEAN_MOTION_DDOT = 0

CCSDS_OMM_VERS = 2.0
CREATION_DATE  = 
ORIGINATOR     = 

OBJECT_NAME    = STARLINK-35582
OBJECT_ID      = 2025-265X
CENTER_NAME    = EARTH
REF_FRAME      = TEME
TIME_SYSTEM    = UTC
MEAN_ELEMENT_THEORY = SGP/SGP4

EPOCH          = 2025-12-03T22:00:03.000096
MEAN_MOTION    = 15.75314122
ECCENTRICITY   = .00016801
INCLINATION    = 43.0001
RA_OF_ASC_NODE = 106.2080
ARG_OF_PERICENTER = 283.9953
MEAN_ANOMALY   = 342.1692

EPHEMERIS_TYPE = 0
CLASSIFICATION_TYPE = U
NORAD_CAT_ID   = 66537
ELEMENT_SET_NO = 999
REV_AT_EPOCH   = 357
BSTAR          = -.52968896E-2
MEAN_MOTION_DOT = -.754251E-2
MEAN_MOTION_DDOT = 0

CCSDS_OMM_VERS = 2.0
CREATION_DATE  = 
ORIGINATOR     = 

OBJECT_NAME    = STARLINK-35577
OBJECT_ID      = 2025-265Y
CENTER_NAME    = EARTH
REF_FRAME      = TEME
TIME_SYSTEM    = UTC
MEAN_ELEMENT_THEORY = SGP/SGP4

EPOCH          = 2025-12-03T22:00:03.000096
MEAN_MOTION    = 15.75248258
ECCENTRICITY   = .00017413
INCLINATION    = 43.0000
RA_OF_ASC_NODE = 106.2026
ARG_OF_PERICENTER = 266.0055
MEAN_ANOMALY   = 2.1982

EPHEMERIS_TYPE = 0
CLASSIFICATION_TYPE = U
NORAD_CAT_ID   = 66538
ELEMENT_SET_NO = 999
REV_AT_EPOCH   = 357
BSTAR          = -.52678755E-2
MEAN_MOTION_DOT = -.748477E-2
MEAN_MOTION_DDOT = 0

CCSDS_OMM_VERS = 2.0
CREATION_DATE  = 
ORIGINATOR     = 

OBJECT_NAME    = STARLINK-35697
OBJECT_ID      = 2025-265Z
CENTER_NAME    = EARTH
REF_FRAME      = TEME
TIME_SYSTEM    = UTC
MEAN_ELEMENT_THEORY = SGP/SGP4

EPOCH          = 2025-12-03T22:00:03.000096
MEAN_MOTION    = 15.75308569
ECCENTRICITY   = .00017233
INCLINATION    = 43.0001
RA_OF_ASC_NODE = 106.1978
ARG_OF_PERICENTER = 265.4843
MEAN_ANOMALY   = 4.4951

EPHEMERIS_TYPE = 0
CLASSIFICATION_TYPE = U
NORAD_CAT_ID   = 66539
ELEMENT_SET_NO = 999
REV_AT_EPOCH   = 357
BSTAR          = -.51512286E-2
MEAN_MOTION_DOT = -.735028E-2
MEAN_MOTION_DDOT = 0

CCSDS_OMM_VERS = 2.0
CREATION_DATE  = 
ORIGINATOR     = 

OBJECT_NAME    = STARLINK-35818
OBJECT_ID      = 2025-265AA
CENTER_NAME    = EARTH
REF_FRAME      = TEME
TIME_SYSTEM    = UTC
MEAN_ELEMENT_THEORY = SGP/SGP4

EPOCH          = 2025-12-03T22:00:03.000096
MEAN_MOTION    = 15.75405716
ECCENTRICITY   = .00019994
INCLINATION    = 42.9998
RA_OF_ASC_NODE = 106.1933
ARG_OF_PERICENTER = 274.4544
MEAN_ANOMALY   = 357.4550

EPHEMERIS_TYPE = 0
CLASSIFICATION_TYPE = U
NORAD_CAT_ID   = 66540
ELEMENT_SET_NO = 999
REV_AT_EPOCH   = 357
BSTAR          = -.63532111E-2
MEAN_MOTION_DOT = -.893335E-2
MEAN_MOTION_DDOT = 0

CCSDS_OMM_VERS = 2.0
CREATION_DATE  = 
ORIGINATOR     = 

OBJECT_NAME    = STARLINK-35796
OBJECT_ID      = 2025-265AB
CENTER_NAME    = EARTH
REF_FRAME      = TEME
TIME_SYSTEM    = UTC
MEAN_ELEMENT_THEORY = SGP/SGP4

EPOCH          = 2025-12-03T22:00:03.000096
MEAN_MOTION    = 15.75310596
ECCENTRICITY   = .00019544
INCLINATION    = 43.0000
RA_OF_ASC_NODE = 106.1884
ARG_OF_PERICENTER = 269.3360
MEAN_ANOMALY   = 4.4823

EPHEMERIS_TYPE = 0
CLASSIFICATION_TYPE = U
NORAD_CAT_ID   = 66541
ELEMENT_SET_NO = 999
REV_AT_EPOCH   = 357
BSTAR          = -.52055207E-2
MEAN_MOTION_DOT = -.742266E-2
MEAN_MOTION_DDOT = 0

CCSDS_OMM_VERS = 2.0
CREATION_DATE  = 
ORIGINATOR     = 

OBJECT_NAME    = STARLINK-35833
OBJECT_ID      = 2025-265AC
CENTER_NAME    = EARTH
REF_FRAME      = TEME
TIME_SYSTEM    = UTC
MEAN_ELEMENT_THEORY = SGP/SGP4

EPOCH          = 2025-12-03T22:00:03.000096
MEAN_MOTION    = 15.75392115
ECCENTRICITY   = .00014412
INCLINATION    = 42.9999
RA_OF_ASC_NODE = 106.1839
ARG_OF_PERICENTER = 272.0195
MEAN_ANOMALY   = 3.7257

EPHEMERIS_TYPE = 0
CLASSIFICATION_TYPE = U
NORAD_CAT_ID   = 66542
ELEMENT_SET_NO = 999
REV_AT_EPOCH   = 357
BSTAR          = -.62615573E-2
MEAN_MOTION_DOT = -.881026E-2
MEAN_MOTION_DDOT = 0

CCSDS_OMM_VERS = 2.0
CREATION_DATE  = 
ORIGINATOR     = 

OBJECT_NAME    = STARLINK-35315
OBJECT_ID      = 2025-265AD
CENTER_NAME    = EARTH
REF_FRAME      = TEME
TIME_SYSTEM    = UTC
MEAN_ELEMENT_THEORY = SGP/SGP4

EPOCH          = 2025-12-03T22:00:03.000096
MEAN_MOTION    = 15.75396770
ECCENTRICITY   = .00019808
INCLINATION    = 43.0000
RA_OF_ASC_NODE = 106.1785
ARG_OF_PERICENTER = 275.3625
MEAN_ANOMALY   = 2.3017

EPHEMERIS_TYPE = 0
CLASSIFICATION_TYPE = U
NORAD_CAT_ID   = 66543
ELEMENT_SET_NO = 999
REV_AT_EPOCH   = 346
BSTAR          = -.62994132E-2
MEAN_MOTION_DOT = -.886185E-2
MEAN_MOTION_DDOT = 0

CCSDS_OMM_VERS = 2.0
CREATION_DATE  = 
ORIGINATOR     = 

OBJECT_NAME    = STARLINK-35728
OBJECT_ID      = 2025-265AE
CENTER_NAME    = EARTH
REF_FRAME      = TEME
TIME_SYSTEM    = UTC
MEAN_ELEMENT_THEORY = SGP/SGP4

EPOCH          = 2025-12-03T22:00:03.000096
MEAN_MOTION    = 15.75303747
ECCENTRICITY   = .00017904
INCLINATION    = 42.9999
RA_OF_ASC_NODE = 106.1740
ARG_OF_PERICENTER = 262.6294
MEAN_ANOMALY   = 16.9440

EPHEMERIS_TYPE = 0
CLASSIFICATION_TYPE = U
NORAD_CAT_ID   = 66544
ELEMENT_SET_NO = 999
REV_AT_EPOCH   = 357
BSTAR          = -.51554061E-2
MEAN_MOTION_DOT = -.73545E-2
MEAN_MOTION_DDOT = 0

